{
  "type": "FeatureCollection",
  "features": [
    {
      "type": "Feature",
      "properties": {
        "norad_id": 34590,
        "name": "COSMOS 2251 DEB",
        "group": "cosmos-2251-debris",
        "lat": -70.55626959723234,
        "lon": 172.88995382055597,
        "alt_km": 763.6212831406783,
        "timestamp": "2025-12-25T07:41:10.118059+00:00",
        "meta_object_name": "COSMOS 2251 DEB",
        "meta_object_id": "1993-036WC",
        "meta_epoch": "2025-12-24T20:54:05.844672",
        "meta_mean_motion": 14.54839692,
        "meta_eccentricity": 0.00680797,
        "meta_inclination": 74.0446,
        "meta_ra_of_asc_node": 299.6021,
        "meta_arg_of_pericenter": 65.6642,
        "meta_mean_anomaly": 0.7564,
        "meta_ephemeris_type": 0,
        "meta_classification_type": "U",
        "meta_norad_cat_id": 34590,
        "meta_element_set_no": 999,
        "meta_rev_at_epoch": 89297,
        "meta_bstar": 0.0001390482,
        "meta_mean_motion_dot": 5.86e-06,
        "meta_mean_motion_ddot": 0,
        "tle_line1": "1 34590U 93036WC  25358.87090098  .00000586  00000+0  13905-3 0  9995",
        "tle_line2": "2 34590  74.0446 299.6021 0068079  65.6642   0.7564 14.54839692892974"
      },
      "geometry": {
        "type": "Point",
        "coordinates": [
          172.88995382055597,
          -70.55626959723234
        ]
      }
    },
    {
      "type": "Feature",
      "properties": {
        "norad_id": 34609,
        "name": "COSMOS 2251 DEB",
        "group": "cosmos-2251-debris",
        "lat": -23.31778836171662,
        "lon": 76.49945877825444,
        "alt_km": 737.2319005083627,
        "timestamp": "2025-12-25T07:41:10.118069+00:00",
        "meta_object_name": "COSMOS 2251 DEB",
        "meta_object_id": "1993-036WE",
        "meta_epoch": "2025-12-24T00:34:30.192384",
        "meta_mean_motion": 14.2183063,
        "meta_eccentricity": 0.01457677,
        "meta_inclination": 73.7329,
        "meta_ra_of_asc_node": 86.098,
        "meta_arg_of_pericenter": 303.8546,
        "meta_mean_anomaly": 238.3232,
        "meta_ephemeris_type": 0,
        "meta_classification_type": "U",
        "meta_norad_cat_id": 34609,
        "meta_element_set_no": 999,
        "meta_rev_at_epoch": 86792,
        "meta_bstar": 0.00072342659,
        "meta_mean_motion_dot": 1.747e-05,
        "meta_mean_motion_ddot": 0,
        "tle_line1": "1 34609U 93036WE  25358.02396056  .00001747  00000+0  72343-3 0  9997",
        "tle_line2": "2 34609  73.7329  86.0980 0145767 303.8546 238.3232 14.21830630867928"
      },
      "geometry": {
        "type": "Point",
        "coordinates": [
          76.49945877825444,
          -23.31778836171662
        ]
      }
    },
    {
      "type": "Feature",
      "properties": {
        "norad_id": 34610,
        "name": "COSMOS 2251 DEB",
        "group": "cosmos-2251-debris",
        "lat": -13.221660823476117,
        "lon": 64.11757920322084,
        "alt_km": 1003.5669771095281,
        "timestamp": "2025-12-25T07:41:10.118079+00:00",
        "meta_object_name": "COSMOS 2251 DEB",
        "meta_object_id": "1993-036WF",
        "meta_epoch": "2025-12-23T10:24:24.827616",
        "meta_mean_motion": 14.07123251,
        "meta_eccentricity": 0.01806356,
        "meta_inclination": 74.0159,
        "meta_ra_of_asc_node": 243.5644,
        "meta_arg_of_pericenter": 11.7227,
        "meta_mean_anomaly": 348.8028,
        "meta_ephemeris_type": 0,
        "meta_classification_type": "U",
        "meta_norad_cat_id": 34610,
        "meta_element_set_no": 999,
        "meta_rev_at_epoch": 85710,
        "meta_bstar": 0.0019617282,
        "meta_mean_motion_dot": 3.785e-05,
        "meta_mean_motion_ddot": 0,
        "tle_line1": "1 34610U 93036WF  25357.43362069  .00003785  00000+0  19617-2 0  9998",
        "tle_line2": "2 34610  74.0159 243.5644 0180635  11.7227 348.8028 14.07123251857103"
      },
      "geometry": {
        "type": "Point",
        "coordinates": [
          64.11757920322084,
          -13.221660823476117
        ]
      }
    },
    {
      "type": "Feature",
      "properties": {
        "norad_id": 34611,
        "name": "COSMOS 2251 DEB",
        "group": "cosmos-2251-debris",
        "lat": -17.061270497201342,
        "lon": -98.34975463045402,
        "alt_km": 664.9807753315163,
        "timestamp": "2025-12-25T07:41:10.118089+00:00",
        "meta_object_name": "COSMOS 2251 DEB",
        "meta_object_id": "1993-036WG",
        "meta_epoch": "2025-12-24T16:39:10.717056",
        "meta_mean_motion": 14.69705463,
        "meta_eccentricity": 0.0021547,
        "meta_inclination": 74.0532,
        "meta_ra_of_asc_node": 77.828,
        "meta_arg_of_pericenter": 114.8574,
        "meta_mean_anomaly": 9.7647,
        "meta_ephemeris_type": 0,
        "meta_classification_type": "U",
        "meta_norad_cat_id": 34611,
        "meta_element_set_no": 999,
        "meta_rev_at_epoch": 88566,
        "meta_bstar": 0.0014225378,
        "meta_mean_motion_dot": 8.484e-05,
        "meta_mean_motion_ddot": 0,
        "tle_line1": "1 34611U 93036WG  25358.69387404  .00008484  00000+0  14225-2 0  9999",
        "tle_line2": "2 34611  74.0532  77.8280 0021547 114.8574   9.7647 14.69705463885660"
      },
      "geometry": {
        "type": "Point",
        "coordinates": [
          -98.34975463045402,
          -17.061270497201342
        ]
      }
    },
    {
      "type": "Feature",
      "properties": {
        "norad_id": 34613,
        "name": "COSMOS 2251 DEB",
        "group": "cosmos-2251-debris",
        "lat": 44.37580679901681,
        "lon": 59.36268228991877,
        "alt_km": 746.533593473996,
        "timestamp": "2025-12-25T07:41:10.118099+00:00",
        "meta_object_name": "COSMOS 2251 DEB",
        "meta_object_id": "1993-036WJ",
        "meta_epoch": "2025-12-24T17:45:16.187616",
        "meta_mean_motion": 14.26502206,
        "meta_eccentricity": 0.01107264,
        "meta_inclination": 73.9629,
        "meta_ra_of_asc_node": 256.7621,
        "meta_arg_of_pericenter": 85.5038,
        "meta_mean_anomaly": 306.9262,
        "meta_ephemeris_type": 0,
        "meta_classification_type": "U",
        "meta_norad_cat_id": 34613,
        "meta_element_set_no": 999,
        "meta_rev_at_epoch": 86634,
        "meta_bstar": 0.0011571571,
        "meta_mean_motion_dot": 2.951e-05,
        "meta_mean_motion_ddot": 0,
        "tle_line1": "1 34613U 93036WJ  25358.73977069  .00002951  00000+0  11572-2 0  9993",
        "tle_line2": "2 34613  73.9629 256.7621 0110726  85.5038 306.9262 14.26502206866343"
      },
      "geometry": {
        "type": "Point",
        "coordinates": [
          59.36268228991877,
          44.37580679901681
        ]
      }
    },
    {
      "type": "Feature",
      "properties": {
        "norad_id": 34614,
        "name": "COSMOS 2251 DEB",
        "group": "cosmos-2251-debris",
        "lat": 10.115477994267081,
        "lon": -35.79998162954127,
        "alt_km": 755.3574813740179,
        "timestamp": "2025-12-25T07:41:10.118109+00:00",
        "meta_object_name": "COSMOS 2251 DEB",
        "meta_object_id": "1993-036WK",
        "meta_epoch": "2025-12-24T21:37:08.839200",
        "meta_mean_motion": 14.17833523,
        "meta_eccentricity": 0.01962314,
        "meta_inclination": 73.8822,
        "meta_ra_of_asc_node": 321.9978,
        "meta_arg_of_pericenter": 314.2153,
        "meta_mean_anomaly": 74.3764,
        "meta_ephemeris_type": 0,
        "meta_classification_type": "U",
        "meta_norad_cat_id": 34614,
        "meta_element_set_no": 999,
        "meta_rev_at_epoch": 84939,
        "meta_bstar": 0.006748583,
        "meta_mean_motion_dot": 0.0001667,
        "meta_mean_motion_ddot": 0,
        "tle_line1": "1 34614U 93036WK  25358.90079675  .00016670  00000+0  67486-2 0  9997",
        "tle_line2": "2 34614  73.8822 321.9978 0196231 314.2153  74.3764 14.17833523849391"
      },
      "geometry": {
        "type": "Point",
        "coordinates": [
          -35.79998162954127,
          10.115477994267081
        ]
      }
    },
    {
      "type": "Feature",
      "properties": {
        "norad_id": 34615,
        "name": "COSMOS 2251 DEB",
        "group": "cosmos-2251-debris",
        "lat": 0.4488537237822507,
        "lon": 93.836661453935,
        "alt_km": 768.5549569397217,
        "timestamp": "2025-12-25T07:41:10.118119+00:00",
        "meta_object_name": "COSMOS 2251 DEB",
        "meta_object_id": "1993-036WL",
        "meta_epoch": "2025-12-23T05:51:02.282688",
        "meta_mean_motion": 13.52205597,
        "meta_eccentricity": 0.04004644,
        "meta_inclination": 74.0046,
        "meta_ra_of_asc_node": 277.2944,
        "meta_arg_of_pericenter": 182.2976,
        "meta_mean_anomaly": 332.6284,
        "meta_ephemeris_type": 0,
        "meta_classification_type": "U",
        "meta_norad_cat_id": 34615,
        "meta_element_set_no": 999,
        "meta_rev_at_epoch": 82957,
        "meta_bstar": 0.00017989399,
        "meta_mean_motion_dot": 1.76e-06,
        "meta_mean_motion_ddot": 0,
        "tle_line1": "1 34615U 93036WL  25357.24377642  .00000176  00000+0  17989-3 0  9997",
        "tle_line2": "2 34615  74.0046 277.2944 0400464 182.2976 332.6284 13.52205597829578"
      },
      "geometry": {
        "type": "Point",
        "coordinates": [
          93.836661453935,
          0.4488537237822507
        ]
      }
    }
  ]
}